O3B MPOWER F1           
1 54755U 22174A   24266.99676726 -.00000026  00000+0  00000+0 0  9991
2 54755   0.0541 345.6574 0006547 189.0891  20.2954  5.00113551 33739
